ONEWEB-0414             
1 50491U 21132Y   25212.21280304 -.00000016  00000+0 -73780-4 0  9997
2 50491  87.9123  39.1918 0001951  94.9839 265.1516 13.18687251180614
ONEWEB-0417             
1 50492U 21132Z   25211.91755664  .00000022  00000+0  21870-4 0  9998
2 50492  87.9126  39.2820 0001590  94.0726 266.0588 13.18688869179260
ONEWEB-0418             
1 50493U 21132AA  25212.07905933  .00000040  00000+0  69569-4 0  9990
2 50493  87.9125  39.2359 0001579  98.8997 261.2314 13.18686956180627
ONEWEB-0419             
1 50494U 21132AB  25212.02147672  .00000067  00000+0  13668-3 0  9991
2 50494  87.9121  39.2500 0001465  88.4504 271.6796 13.18686825180540
ONEWEB-0421             
1 50496U 21132AD  25211.90435007  .00000016  00000+0  85577-5 0  9995
2 50496  87.9125  39.2762 0002016  96.0993 264.0369 13.18687327179274
ONEWEB-0424             
1 50497U 21132AE  25212.09239691  .00000022  00000+0  22368-4 0  9993
2 50497  87.9125  39.2326 0001448  81.3905 278.7391 13.18686401180607
